CTC1_L_00215001-01
1 43490U 23395PO  26070.40833333  .00000000  00000+0  00000-0 0  9993
2 43490  85.0000   0.0000 0000000   0.0000   0.0000 13.42494874    12
CTC1_L_00215001-02
1 43491U 22007FT  26070.40833333  .00000000  00000+0  00000-0 0  9993
2 43491  85.0000   0.0000 0000000   0.0000  90.0000 13.42494874    12
CTC1_L_00215001-03
1 43492U 25365CT  26070.40833333  .00000000  00000+0  00000-0 0  9994
2 43492  85.0000   0.0000 0000000   0.0000 180.0000 13.42494874    13
CTC1_L_00215001-04
1 43493U 22742WQ  26070.40833333  .00000000  00000+0  00000-0 0  9991
2 43493  85.0000   0.0000 0000000   0.0000 270.0000 13.42494874    14
CTC1_L_00215002-01
1 43494U 23308HL  26070.40833333  .00000000  00000+0  00000-0 0  9991
2 43494  85.0000  12.0000 0000000   0.0000  12.0000 13.42494874    12
CTC1_L_00215002-02
1 43495U 24963JQ  26070.40833333  .00000000  00000+0  00000-0 0  9990
2 43495  85.0000  12.0000 0000000   0.0000 102.0000 13.42494874    13
CTC1_L_00215002-03
1 43496U 25440PC  26070.40833333  .00000000  00000+0  00000-0 0  9992
2 43496  85.0000  12.0000 0000000   0.0000 192.0000 13.42494874    13
CTC1_L_00215002-04
1 43497U 24712VN  26070.40833333  .00000000  00000+0  00000-0 0  9994
2 43497  85.0000  12.0000 0000000   0.0000 282.0000 13.42494874    14
CTC1_L_00215003-01
1 43498U 24567AV  26070.40833333  .00000000  00000+0  00000-0 0  9993
2 43498  85.0000  24.0000 0000000   0.0000  24.0000 13.42494874    12
CTC1_L_00215003-02
1 43499U 24858MH  26070.40833333  .00000000  00000+0  00000-0 0  9997
2 43499  85.0000  24.0000 0000000   0.0000 114.0000 13.42494874    13
CTC1_L_00215003-03
1 43500U 24303BV  26070.40833333  .00000000  00000+0  00000-0 0  9995
2 43500  85.0000  24.0000 0000000   0.0000 204.0000 13.42494874    16
CTC1_L_00215003-04
1 43501U 25731CY  26070.40833333  .00000000  00000+0  00000-0 0  9992
2 43501  85.0000  24.0000 0000000   0.0000 294.0000 13.42494874    16
CTC1_L_00215004-01
1 43502U 26834UX  26070.40833333  .00000000  00000+0  00000-0 0  9998
2 43502  85.0000  36.0000 0000000   0.0000  36.0000 13.42494874    14
CTC1_L_00215004-02
1 43503U 23962PY  26070.40833333  .00000000  00000+0  00000-0 0  9998
2 43503  85.0000  36.0000 0000000   0.0000 126.0000 13.42494874    15
CTC1_L_00215004-03
1 43504U 25428XE  26070.40833333  .00000000  00000+0  00000-0 0  9998
2 43504  85.0000  36.0000 0000000   0.0000 216.0000 13.42494874    16
CTC1_L_00215004-04
1 43505U 24600EK  26070.40833333  .00000000  00000+0  00000-0 0  9990
2 43505  85.0000  36.0000 0000000   0.0000 306.0000 13.42494874    17
CTC1_L_00215005-01
1 43506U 24841IW  26070.40833333  .00000000  00000+0  00000-0 0  9998
2 43506  85.0000  48.0000 0000000   0.0000  48.0000 13.42494874    14
CTC1_L_00215005-02
1 43507U 22606BC  26070.40833333  .00000000  00000+0  00000-0 0  9996
2 43507  85.0000  48.0000 0000000   0.0000 138.0000 13.42494874    15
CTC1_L_00215005-03
1 43508U 24798AX  26070.40833333  .00000000  00000+0  00000-0 0  9991
2 43508  85.0000  48.0000 0000000   0.0000 228.0000 13.42494874    16
CTC1_L_00215005-04
1 43509U 23568AR  26070.40833333  .00000000  00000+0  00000-0 0  9996
2 43509  85.0000  48.0000 0000000   0.0000 318.0000 13.42494874    17
CTC1_L_00215006-01
1 43510U 25226NE  26070.40833333  .00000000  00000+0  00000-0 0  9991
2 43510  85.0000  60.0000 0000000   0.0000  60.0000 13.42494874    17
CTC1_L_00215006-02
1 43511U 22139LL  26070.40833333  .00000000  00000+0  00000-0 0  9992
2 43511  85.0000  60.0000 0000000   0.0000 150.0000 13.42494874    18
CTC1_L_00215006-03
1 43512U 22016SS  26070.40833333  .00000000  00000+0  00000-0 0  9997
2 43512  85.0000  60.0000 0000000   0.0000 240.0000 13.42494874    19
CTC1_L_00215006-04
1 43513U 23528AE  26070.40833333  .00000000  00000+0  00000-0 0  9997
2 43513  85.0000  60.0000 0000000   0.0000 330.0000 13.42494874    10
CTC1_L_00215007-01
1 43514U 26063WJ  26070.40833333  .00000000  00000+0  00000-0 0  9995
2 43514  85.0000  72.0000 0000000   0.0000  72.0000 13.42494874    17
CTC1_L_00215007-02
1 43515U 25844KB  26070.40833333  .00000000  00000+0  00000-0 0  9992
2 43515  85.0000  72.0000 0000000   0.0000 162.0000 13.42494874    18
CTC1_L_00215007-03
1 43516U 26441RR  26070.40833333  .00000000  00000+0  00000-0 0  9997
2 43516  85.0000  72.0000 0000000   0.0000 252.0000 13.42494874    19
CTC1_L_00215007-04
1 43517U 26682LW  26070.40833333  .00000000  00000+0  00000-0 0  9995
2 43517  85.0000  72.0000 0000000   0.0000 342.0000 13.42494874    10
CTC1_L_00215008-01
1 43518U 24357EG  26070.40833333  .00000000  00000+0  00000-0 0  9993
2 43518  85.0000  84.0000 0000000   0.0000  84.0000 13.42494874    17
CTC1_L_00215008-02
1 43519U 25615Y   26070.40833333  .00000000  00000+0  00000-0 0  9992
2 43519  85.0000  84.0000 0000000   0.0000 174.0000 13.42494874    18
CTC1_L_00215008-03
1 43520U 26367YW  26070.40833333  .00000000  00000+0  00000-0 0  9999
2 43520  85.0000  84.0000 0000000   0.0000 264.0000 13.42494874    10
CTC1_L_00215008-04
1 43521U 24104OC  26070.40833333  .00000000  00000+0  00000-0 0  9997
2 43521  85.0000  84.0000 0000000   0.0000 354.0000 13.42494874    11
CTC1_L_00215009-01
1 43522U 22888LC  26070.40833333  .00000000  00000+0  00000-0 0  9995
2 43522  85.0000  96.0000 0000000   0.0000  96.0000 13.42494874    18
CTC1_L_00215009-02
1 43523U 26756ZI  26070.40833333  .00000000  00000+0  00000-0 0  9994
2 43523  85.0000  96.0000 0000000   0.0000 186.0000 13.42494874    19
CTC1_L_00215009-03
1 43524U 24374LH  26070.40833333  .00000000  00000+0  00000-0 0  9999
2 43524  85.0000  96.0000 0000000   0.0000 276.0000 13.42494874    10
CTC1_L_00215009-04
1 43525U 26883S   26070.40833333  .00000000  00000+0  00000-0 0  9997
2 43525  85.0000  96.0000 0000000   0.0000   6.0000 13.42494874    12
CTC1_L_00215010-01
1 43526U 26529JZ  26070.40833333  .00000000  00000+0  00000-0 0  9995
2 43526  85.0000 108.0000 0000000   0.0000 108.0000 13.42494874    10
CTC1_L_00215010-02
1 43527U 25801TN  26070.40833333  .00000000  00000+0  00000-0 0  9998
2 43527  85.0000 108.0000 0000000   0.0000 198.0000 13.42494874    10
CTC1_L_00215010-03
1 43528U 24694OJ  26070.40833333  .00000000  00000+0  00000-0 0  9998
2 43528  85.0000 108.0000 0000000   0.0000 288.0000 13.42494874    11
CTC1_L_00215010-04
1 43529U 24620YU  26070.40833333  .00000000  00000+0  00000-0 0  9998
2 43529  85.0000 108.0000 0000000   0.0000  18.0000 13.42494874    13
CTC1_L_00215011-01
1 43530U 26845JT  26070.40833333  .00000000  00000+0  00000-0 0  9991
2 43530  85.0000 120.0000 0000000   0.0000 120.0000 13.42494874    13
CTC1_L_00215011-02
1 43531U 23069A   26070.40833333  .00000000  00000+0  00000-0 0  9997
2 43531  85.0000 120.0000 0000000   0.0000 210.0000 13.42494874    14
CTC1_L_00215011-03
1 43532U 26476ZV  26070.40833333  .00000000  00000+0  00000-0 0  9993
2 43532  85.0000 120.0000 0000000   0.0000 300.0000 13.42494874    15
CTC1_L_00215011-04
1 43533U 26455QJ  26070.40833333  .00000000  00000+0  00000-0 0  9991
2 43533  85.0000 120.0000 0000000   0.0000  30.0000 13.42494874    16
CTC1_L_00215012-01
1 43534U 22365B   26070.40833333  .00000000  00000+0  00000-0 0  9998
2 43534  85.0000 132.0000 0000000   0.0000 132.0000 13.42494874    13
CTC1_L_00215012-02
1 43535U 23573VY  26070.40833333  .00000000  00000+0  00000-0 0  9991
2 43535  85.0000 132.0000 0000000   0.0000 222.0000 13.42494874    14
CTC1_L_00215012-03
1 43536U 24744FF  26070.40833333  .00000000  00000+0  00000-0 0  9993
2 43536  85.0000 132.0000 0000000   0.0000 312.0000 13.42494874    15
CTC1_L_00215012-04
1 43537U 22510SV  26070.40833333  .00000000  00000+0  00000-0 0  9993
2 43537  85.0000 132.0000 0000000   0.0000  42.0000 13.42494874    16
CTC1_L_00215013-01
1 43538U 22755NS  26070.40833333  .00000000  00000+0  00000-0 0  9995
2 43538  85.0000 144.0000 0000000   0.0000 144.0000 13.42494874    13
CTC1_L_00215013-02
1 43539U 22745UA  26070.40833333  .00000000  00000+0  00000-0 0  9995
2 43539  85.0000 144.0000 0000000   0.0000 234.0000 13.42494874    14
CTC1_L_00215013-03
1 43540U 24088AZ  26070.40833333  .00000000  00000+0  00000-0 0  9999
2 43540  85.0000 144.0000 0000000   0.0000 324.0000 13.42494874    16
CTC1_L_00215013-04
1 43541U 23263FE  26070.40833333  .00000000  00000+0  00000-0 0  9994
2 43541  85.0000 144.0000 0000000   0.0000  54.0000 13.42494874    17
CTC1_L_00215014-01
1 43542U 23241QJ  26070.40833333  .00000000  00000+0  00000-0 0  9991
2 43542  85.0000 156.0000 0000000   0.0000 156.0000 13.42494874    14
CTC1_L_00215014-02
1 43543U 26742HC  26070.40833333  .00000000  00000+0  00000-0 0  9991
2 43543  85.0000 156.0000 0000000   0.0000 246.0000 13.42494874    15
CTC1_L_00215014-03
1 43544U 22899KJ  26070.40833333  .00000000  00000+0  00000-0 0  9991
2 43544  85.0000 156.0000 0000000   0.0000 336.0000 13.42494874    16
CTC1_L_00215014-04
1 43545U 26856VY  26070.40833333  .00000000  00000+0  00000-0 0  9999
2 43545  85.0000 156.0000 0000000   0.0000  66.0000 13.42494874    17
CTC1_L_00215015-01
1 43546U 24970ZK  26070.40833333  .00000000  00000+0  00000-0 0  9995
2 43546  85.0000 168.0000 0000000   0.0000 168.0000 13.42494874    14
CTC1_L_00215015-02
1 43547U 26916YI  26070.40833333  .00000000  00000+0  00000-0 0  9998
2 43547  85.0000 168.0000 0000000   0.0000 258.0000 13.42494874    15
CTC1_L_00215015-03
1 43548U 24628WH  26070.40833333  .00000000  00000+0  00000-0 0  9997
2 43548  85.0000 168.0000 0000000   0.0000 348.0000 13.42494874    16
CTC1_L_00215015-04
1 43549U 23125PA  26070.40833333  .00000000  00000+0  00000-0 0  9999
2 43549  85.0000 168.0000 0000000   0.0000  78.0000 13.42494874    17
CTC1_L_00215016-01
1 43550U 22694OH  26070.40833333  .00000000  00000+0  00000-0 0  9991
2 43550  85.0000 180.0000 0000000   0.0000 180.0000 13.42494874    17
CTC1_L_00215016-02
1 43551U 24022SP  26070.40833333  .00000000  00000+0  00000-0 0  9999
2 43551  85.0000 180.0000 0000000   0.0000 270.0000 13.42494874    18
